{
  "type": "FeatureCollection",
  "features": [
    {
      "type": "Feature",
      "properties": {
        "norad_id": 2807,
        "name": "OPS 7218 (TRANSIT 16)",
        "group": "nnss",
        "lat": 41.187929157439505,
        "lon": 173.81038493645724,
        "alt_km": 1050.9074701983454,
        "timestamp": "2025-12-10T07:43:55.047937+00:00",
        "meta_object_name": "OPS 7218 (TRANSIT 16)",
        "meta_object_id": "1967-048A",
        "meta_epoch": "2025-12-09T19:27:21.539808",
        "meta_mean_motion": 13.50721437,
        "meta_eccentricity": 0.0021833,
        "meta_inclination": 89.6732,
        "meta_ra_of_asc_node": 354.1134,
        "meta_arg_of_pericenter": 121.9159,
        "meta_mean_anomaly": 51.0026,
        "meta_ephemeris_type": 0,
        "meta_classification_type": "U",
        "meta_norad_cat_id": 2807,
        "meta_element_set_no": 999,
        "meta_rev_at_epoch": 88236,
        "meta_bstar": 0.00021843,
        "meta_mean_motion_dot": 1.51e-06,
        "meta_mean_motion_ddot": 0,
        "tle_line1": "1 02807U 67048A   25343.81066597  .00000151  00000+0  21843-3 0  9998",
        "tle_line2": "2 02807  89.6732 354.1134 0021833 121.9159  51.0026 13.50721437882364"
      },
      "geometry": {
        "type": "Point",
        "coordinates": [
          173.81038493645724,
          41.187929157439505
        ]
      }
    },
    {
      "type": "Feature",
      "properties": {
        "norad_id": 2965,
        "name": "OPS 4947 (TRANSIT 17)",
        "group": "nnss",
        "lat": 0.9553186309966536,
        "lon": -155.39223018422368,
        "alt_km": 1046.7067034891043,
        "timestamp": "2025-12-10T07:43:55.047960+00:00",
        "meta_object_name": "OPS 4947 (TRANSIT 17)",
        "meta_object_id": "1967-092A",
        "meta_epoch": "2025-12-09T09:36:30.324672",
        "meta_mean_motion": 13.53452312,
        "meta_eccentricity": 0.00459991,
        "meta_inclination": 89.2499,
        "meta_ra_of_asc_node": 24.6904,
        "meta_arg_of_pericenter": 244.5157,
        "meta_mean_anomaly": 126.0877,
        "meta_ephemeris_type": 0,
        "meta_classification_type": "U",
        "meta_norad_cat_id": 2965,
        "meta_element_set_no": 999,
        "meta_rev_at_epoch": 87052,
        "meta_bstar": 0.00025971381,
        "meta_mean_motion_dot": 1.87e-06,
        "meta_mean_motion_ddot": 0,
        "tle_line1": "1 02965U 67092A   25343.40035098  .00000187  00000+0  25971-3 0  9994",
        "tle_line2": "2 02965  89.2499  24.6904 0045999 244.5157 126.0877 13.53452312870526"
      },
      "geometry": {
        "type": "Point",
        "coordinates": [
          -155.39223018422368,
          0.9553186309966536
        ]
      }
    },
    {
      "type": "Feature",
      "properties": {
        "norad_id": 3133,
        "name": "OPS 7034 (TRANSIT 18)",
        "group": "nnss",
        "lat": -14.955308245145506,
        "lon": -86.36070119797675,
        "alt_km": 1124.9576609893866,
        "timestamp": "2025-12-10T07:43:55.047973+00:00",
        "meta_object_name": "OPS 7034 (TRANSIT 18)",
        "meta_object_id": "1968-012A",
        "meta_epoch": "2025-12-09T19:29:54.021984",
        "meta_mean_motion": 13.51564681,
        "meta_eccentricity": 0.0073569,
        "meta_inclination": 90.0276,
        "meta_ra_of_asc_node": 273.6305,
        "meta_arg_of_pericenter": 177.6268,
        "meta_mean_anomaly": 208.6684,
        "meta_ephemeris_type": 0,
        "meta_classification_type": "U",
        "meta_norad_cat_id": 3133,
        "meta_element_set_no": 999,
        "meta_rev_at_epoch": 56879,
        "meta_bstar": 0.00027275,
        "meta_mean_motion_dot": 1.9e-06,
        "meta_mean_motion_ddot": 0,
        "tle_line1": "1 03133U 68012A   25343.81243081  .00000190  00000+0  27275-3 0  9996",
        "tle_line2": "2 03133  90.0276 273.6305 0073569 177.6268 208.6684 13.51564681568798"
      },
      "geometry": {
        "type": "Point",
        "coordinates": [
          -86.36070119797675,
          -14.955308245145506
        ]
      }
    },
    {
      "type": "Feature",
      "properties": {
        "norad_id": 4507,
        "name": "NNSS 19 (TRANSIT 19)",
        "group": "nnss",
        "lat": -40.826769158626405,
        "lon": -125.46296505375204,
        "alt_km": 953.4230278408522,
        "timestamp": "2025-12-10T07:43:55.047986+00:00",
        "meta_object_name": "NNSS 19 (TRANSIT 19)",
        "meta_object_id": "1970-067A",
        "meta_epoch": "2025-12-09T10:36:12.002112",
        "meta_mean_motion": 13.51314006,
        "meta_eccentricity": 0.01707452,
        "meta_inclination": 90.0057,
        "meta_ra_of_asc_node": 234.5316,
        "meta_arg_of_pericenter": 303.0164,
        "meta_mean_anomaly": 55.4679,
        "meta_ephemeris_type": 0,
        "meta_classification_type": "U",
        "meta_norad_cat_id": 4507,
        "meta_element_set_no": 999,
        "meta_rev_at_epoch": 72177,
        "meta_bstar": 0.00031890867,
        "meta_mean_motion_dot": 2.34e-06,
        "meta_mean_motion_ddot": 0,
        "tle_line1": "1 04507U 70067A   25343.44180558  .00000234  00000+0  31891-3 0  9991",
        "tle_line2": "2 04507  90.0057 234.5316 0170745 303.0164  55.4679 13.51314006721778"
      },
      "geometry": {
        "type": "Point",
        "coordinates": [
          -125.46296505375204,
          -40.826769158626405
        ]
      }
    },
    {
      "type": "Feature",
      "properties": {
        "norad_id": 6909,
        "name": "NNSS 20 (TRANSIT 20)",
        "group": "nnss",
        "lat": -37.8812332135588,
        "lon": 75.20220985355705,
        "alt_km": 1077.6831322299386,
        "timestamp": "2025-12-10T07:43:55.047997+00:00",
        "meta_object_name": "NNSS 20 (TRANSIT 20)",
        "meta_object_id": "1973-081A",
        "meta_epoch": "2025-12-09T11:25:36.409440",
        "meta_mean_motion": 13.71432035,
        "meta_eccentricity": 0.0156617,
        "meta_inclination": 89.8562,
        "meta_ra_of_asc_node": 255.103,
        "meta_arg_of_pericenter": 87.977,
        "meta_mean_anomaly": 273.932,
        "meta_ephemeris_type": 0,
        "meta_classification_type": "U",
        "meta_norad_cat_id": 6909,
        "meta_element_set_no": 999,
        "meta_rev_at_epoch": 80316,
        "meta_bstar": 0.00036387222,
        "meta_mean_motion_dot": 3.69e-06,
        "meta_mean_motion_ddot": 0,
        "tle_line1": "1 06909U 73081A   25343.47611585  .00000369  00000+0  36387-3 0  9994",
        "tle_line2": "2 06909  89.8562 255.1030 0156617  87.9770 273.9320 13.71432035803167"
      },
      "geometry": {
        "type": "Point",
        "coordinates": [
          75.20220985355705,
          -37.8812332135588
        ]
      }
    },
    {
      "type": "Feature",
      "properties": {
        "norad_id": 10457,
        "name": "TRANSAT",
        "group": "nnss",
        "lat": -15.725731628958862,
        "lon": 78.58346862079475,
        "alt_km": 1096.7403109941197,
        "timestamp": "2025-12-10T07:43:55.048008+00:00",
        "meta_object_name": "TRANSAT",
        "meta_object_id": "1977-106A",
        "meta_epoch": "2025-12-09T18:23:16.357920",
        "meta_mean_motion": 13.48943,
        "meta_eccentricity": 0.002511,
        "meta_inclination": 89.6481,
        "meta_ra_of_asc_node": 78.7023,
        "meta_arg_of_pericenter": 198.1954,
        "meta_mean_anomaly": 327.5817,
        "meta_ephemeris_type": 0,
        "meta_classification_type": "U",
        "meta_norad_cat_id": 10457,
        "meta_element_set_no": 999,
        "meta_rev_at_epoch": 36703,
        "meta_bstar": 0.00021291,
        "meta_mean_motion_dot": 1.44e-06,
        "meta_mean_motion_ddot": 0,
        "tle_line1": "1 10457U 77106A   25343.76616155  .00000144  00000+0  21291-3 0  9998",
        "tle_line2": "2 10457  89.6481  78.7023 0025110 198.1954 327.5817 13.48943000367032"
      },
      "geometry": {
        "type": "Point",
        "coordinates": [
          78.58346862079475,
          -15.725731628958862
        ]
      }
    },
    {
      "type": "Feature",
      "properties": {
        "norad_id": 12458,
        "name": "NOVA 1",
        "group": "nnss",
        "lat": 71.13783025639522,
        "lon": -89.01298227695868,
        "alt_km": 1153.502840945789,
        "timestamp": "2025-12-10T07:43:55.048018+00:00",
        "meta_object_name": "NOVA 1",
        "meta_object_id": "1981-044A",
        "meta_epoch": "2025-12-09T17:32:56.257152",
        "meta_mean_motion": 13.23278034,
        "meta_eccentricity": 0.0015825,
        "meta_inclination": 89.8524,
        "meta_ra_of_asc_node": 91.4277,
        "meta_arg_of_pericenter": 111.3717,
        "meta_mean_anomaly": 63.8823,
        "meta_ephemeris_type": 0,
        "meta_classification_type": "U",
        "meta_norad_cat_id": 12458,
        "meta_element_set_no": 999,
        "meta_rev_at_epoch": 15146,
        "meta_bstar": 0.00021671,
        "meta_mean_motion_dot": 1.01e-06,
        "meta_mean_motion_ddot": 0,
        "tle_line1": "1 12458U 81044A   25343.73120668  .00000101  00000+0  21671-3 0  9998",
        "tle_line2": "2 12458  89.8524  91.4277 0015825 111.3717  63.8823 13.23278034151460"
      },
      "geometry": {
        "type": "Point",
        "coordinates": [
          -89.01298227695868,
          71.13783025639522
        ]
      }
    }
  ]
}